EUTELSAT 8 WEST B       
1 40875U 15039B   25220.39814441 -.00000063  00000+0  00000+0 0  9995
2 40875   0.0667 348.3827 0003604 149.2973 314.7884  1.00271745 36526
EUTELSAT 9B             
1 41310U 16005A   25220.32993744  .00000064  00000+0  00000+0 0  9991
2 41310   0.0187  53.7999 0001487  92.7690 298.2883  1.00270053 34973
EUTELSAT 65 WEST A      
1 41382U 16014A   25220.52962322 -.00000273  00000+0  00000+0 0  9993
2 41382   0.0510  19.5579 0002296 115.1317 308.0636  1.00271081 34407
EUTELSAT 117 WEST B     
1 41589U 16038B   25220.49211270 -.00000009  00000+0  00000+0 0  9990
2 41589   0.0173 236.9482 0000266  25.2790 115.1733  1.00273951 33525
EUTELSAT 172B           
1 42741U 17029B   25220.52683626 -.00000003  00000+0  00000+0 0  9998
2 42741   0.0196 157.6501 0000458 288.2049 233.0834  1.00273261 30593
EUTELSAT 7C             
1 44334U 19034B   25220.32976411  .00000051  00000+0  00000+0 0  9993
2 44334   0.0743 188.1723 0003462 294.2278 320.3968  1.00271949  3695
EUTELSAT 5 WEST B       
1 44624U 19067A   25220.32733743 -.00000039  00000+0  00000+0 0  9997
2 44624   0.0904 309.7326 0003182 186.8734 293.3090  1.00271425 21300
EUTELSAT KONNECT        
1 45027U 20005B   25220.32976411  .00000052  00000+0  00000+0 0  9994
2 45027   0.0590  95.6728 0001366  87.3952 259.9132  1.00269397 21181
